COMMENT,ORIGINATOR,NORAD_CAT_ID,OBJECT_NAME,OBJECT_TYPE,CLASSIFICATION_TYPE,INTLDES,EPOCH,EPOCH_MICROSECONDS,MEAN_MOTION,ECCENTRICITY,INCLINATION,RA_OF_ASC_NODE,ARG_OF_PERICENTER,MEAN_ANOMALY,EPHEMERIS_TYPE,ELEMENT_SET_NO,REV_AT_EPOCH,BSTAR,MEAN_MOTION_DOT,MEAN_MOTION_DDOT,FILE,TLE_LINE0,TLE_LINE1,TLE_LINE2,OBJECT_ID,OBJECT_NUMBER,SEMIMAJOR_AXIS,PERIOD,APOGEE,PERIGEE,DECAYED
"GENERATED VIA SPACETRACK.ORG API","18 SPCS","55089","SPACEBEE-163","PAYLOAD","U","23001CJ","2024-02-15 03:46:52","941216","15.35461316","0.0010076","97.4364","110.8569","225.9641","134.0773","0","999","6216","0.0019663","0.00068296","0","4189059","0 SPACEBEE-163","1 55089U 23001CJ  24046.15755719  .00068296  00000-0  19663-2 0  9997","2 55089  97.4364 110.8569 0010076 225.9641 134.0773 15.35461316 62160","2023-001CJ","55089","6837.688","93.783","466.442","452.663","0"
"GENERATED VIA SPACETRACK.ORG API","18 SPCS","55089","SPACEBEE-163","PAYLOAD","U","23001CJ","2024-02-15 03:46:52","941216","15.35461316","0.0010076","97.4364","110.8569","225.9641","134.0773","0","999","6216","0.0019663","0.00068296","0","4189324","0 SPACEBEE-163","1 55089U 23001CJ  24046.15755719  .00068296  00000-0  19663-2 0  9997","2 55089  97.4364 110.8569 0010076 225.9641 134.0773 15.35461316 62160","2023-001CJ","55089","6837.688","93.783","466.442","452.663","0"
"GENERATED VIA SPACETRACK.ORG API","18 SPCS","55089","SPACEBEE-163","PAYLOAD","U","23001CJ","2024-02-15 16:17:37","32576","15.35518752","0.0010048","97.4363","111.3836","224.5143","135.5294","0","999","6224","0.0015963","0.00055438","0","4189692","0 SPACEBEE-163","1 55089U 23001CJ  24046.67890084  .00055438  00000-0  15963-2 0  9992","2 55089  97.4363 111.3836 0010048 224.5143 135.5294 15.35518752 62243","2023-001CJ","55089","6837.517","93.779","466.252","452.512","0"
"GENERATED VIA SPACETRACK.ORG API","18 SPCS","55089","SPACEBEE-163","PAYLOAD","U","23001CJ","2024-02-15 16:17:37","32576","15.35518752","0.0010048","97.4363","111.3836","224.5143","135.5294","0","999","6224","0.0015963","0.00055438","0","4189707","0 SPACEBEE-163","1 55089U 23001CJ  24046.67890084  .00055438  00000-0  15963-2 0  9992","2 55089  97.4363 111.3836 0010048 224.5143 135.5294 15.35518752 62243","2023-001CJ","55089","6837.517","93.779","466.252","452.512","0"
"GENERATED VIA SPACETRACK.ORG API","18 SPCS","55089","SPACEBEE-163","PAYLOAD","U","23001CJ","2024-02-16 03:14:29","164992","15.35575998","0.0010124","97.4365","111.8437","222.6498","137.396","0","999","6231","0.0017028","0.00059281","0","4190317","0 SPACEBEE-163","1 55089U 23001CJ  24047.13505978  .00059281  00000-0  17028-2 0  9993","2 55089  97.4365 111.8437 0010124 222.6498 137.3960 15.35575998 62317","2023-001CJ","55089","6837.347","93.776","466.134","452.290","0"
"GENERATED VIA SPACETRACK.ORG API","18 SPCS","55089","SPACEBEE-163","PAYLOAD","U","23001CJ","2024-02-16 17:18:59","913792","15.35646113","0.0010077","97.4365","112.4362","220.6156","139.4336","0","999","6240","0.0019231","0.00067179","0","4190572","0 SPACEBEE-163","1 55089U 23001CJ  24047.72152678  .00067179  00000-0  19231-2 0  9996","2 55089  97.4365 112.4362 0010077 220.6156 139.4336 15.35646113 62405","2023-001CJ","55089","6837.139","93.772","465.894","452.114","0"
"GENERATED VIA SPACETRACK.ORG API","18 SPCS","55089","SPACEBEE-163","PAYLOAD","U","23001CJ","2024-02-16 17:18:59","913792","15.35646113","0.0010077","97.4365","112.4362","220.6156","139.4336","0","999","6240","0.0019231","0.00067179","0","4190592","0 SPACEBEE-163","1 55089U 23001CJ  24047.72152678  .00067179  00000-0  19231-2 0  9996","2 55089  97.4365 112.4362 0010077 220.6156 139.4336 15.35646113 62405","2023-001CJ","55089","6837.139","93.772","465.894","452.114","0"
"GENERATED VIA SPACETRACK.ORG API","18 SPCS","55089","SPACEBEE-163","PAYLOAD","U","23001CJ","2024-02-17 10:31:07","581216","15.35727761","0.0010038","97.4364","113.1599","217.6629","142.3913","0","999","6251","0.0016105","0.00056313","0","4191236","0 SPACEBEE-163","1 55089U 23001CJ  24048.43828219  .00056313  00000-0  16105-2 0  9991","2 55089  97.4364 113.1599 0010038 217.6629 142.3913 15.35727761 62517","2023-001CJ","55089","6836.897","93.767","465.625","451.899","0"
"GENERATED VIA SPACETRACK.ORG API","18 SPCS","55089","SPACEBEE-163","PAYLOAD","U","23001CJ","2024-02-17 10:31:07","581216","15.35727761","0.0010038","97.4364","113.1599","217.6629","142.3913","0","999","6251","0.0016105","0.00056313","0","4191255","0 SPACEBEE-163","1 55089U 23001CJ  24048.43828219  .00056313  00000-0  16105-2 0  9991","2 55089  97.4364 113.1599 0010038 217.6629 142.3913 15.35727761 62517","2023-001CJ","55089","6836.897","93.767","465.625","451.899","0"
"GENERATED VIA SPACETRACK.ORG API","18 SPCS","55089","SPACEBEE-163","PAYLOAD","U","23001CJ","2024-02-17 16:46:25","944096","15.35758605","0.0010086","97.4364","113.4231","217.3048","142.7496","0","999","6255","0.0015911","0.00055684","0","4191569","0 SPACEBEE-163","1 55089U 23001CJ  24048.69891139  .00055684  00000-0  15911-2 0  9994","2 55089  97.4364 113.4231 0010086 217.3048 142.7496 15.35758605 62553","2023-001CJ","55089","6836.805","93.765","465.566","451.775","0"
"GENERATED VIA SPACETRACK.ORG API","18 SPCS","55089","SPACEBEE-163","PAYLOAD","U","23001CJ","2024-02-18 03:43:11","963712","15.35815352","0.0010164","97.4364","113.8833","215.5031","144.5537","0","999","6262","0.0016495","0.00057854","0","4192133","0 SPACEBEE-163","1 55089U 23001CJ  24049.15499958  .00057854  00000-0  16495-2 0  9998","2 55089  97.4364 113.8833 0010164 215.5031 144.5537 15.35815352 62621","2023-001CJ","55089","6836.637","93.761","465.451","451.553","0"
"GENERATED VIA SPACETRACK.ORG API","18 SPCS","55089","SPACEBEE-163","PAYLOAD","U","23001CJ","2024-02-18 17:47:34","676448","15.35886942","0.0010152","97.4363","114.4758","213.8081","146.2516","0","999","6271","0.0016127","0.00056682","0","4192435","0 SPACEBEE-163","1 55089U 23001CJ  24049.74137357  .00056682  00000-0  16127-2 0  9995","2 55089  97.4363 114.4758 0010152 213.8081 146.2516 15.35886942 62715","2023-001CJ","55089","6836.424","93.757","465.230","451.349","0"
"GENERATED VIA SPACETRACK.ORG API","18 SPCS","55089","SPACEBEE-163","PAYLOAD","U","23001CJ","2024-02-18 17:47:34","676448","15.35886942","0.0010152","97.4363","114.4758","213.8081","146.2516","0","999","6271","0.0016127","0.00056682","0","4192439","0 SPACEBEE-163","1 55089U 23001CJ  24049.74137357  .00056682  00000-0  16127-2 0  9995","2 55089  97.4363 114.4758 0010152 213.8081 146.2516 15.35886942 62715","2023-001CJ","55089","6836.424","93.757","465.230","451.349","0"
"GENERATED VIA SPACETRACK.ORG API","18 SPCS","55089","SPACEBEE-163","PAYLOAD","U","23001CJ","2024-02-19 03:10:28","567776","15.35932606","0.0010231","97.4364","114.8703","212.1713","147.8907","0","999","6277","0.0015925","0.0005605","0","4193039","0 SPACEBEE-163","1 55089U 23001CJ  24050.13227509  .00056050  00000-0  15925-2 0  9993","2 55089  97.4364 114.8703 0010231 212.1713 147.8907 15.35932606 62778","2023-001CJ","55089","6836.289","93.754","465.148","451.160","0"
"GENERATED VIA SPACETRACK.ORG API","18 SPCS","55089","SPACEBEE-163","PAYLOAD","U","23001CJ","2024-02-19 21:56:13","584768","15.36010869","0.0010195","97.4364","115.6598","209.3735","150.6937","0","999","6289","0.0012862","0.00045303","0","4193358","0 SPACEBEE-163","1 55089U 23001CJ  24050.91404612  .00045303  00000-0  12862-2 0  9997","2 55089  97.4364 115.6598 0010195 209.3735 150.6937 15.36010869 62897","2023-001CJ","55089","6836.057","93.749","464.891","450.952","0"
"GENERATED VIA SPACETRACK.ORG API","18 SPCS","55089","SPACEBEE-163","PAYLOAD","U","23001CJ","2024-02-20 02:37:39","342432","15.3603101","0.0010176","97.4363","115.8572","208.3602","151.7089","0","999","6292","0.0012308","0.00043365","0","4193662","0 SPACEBEE-163","1 55089U 23001CJ  24051.10948313  .00043365  00000-0  12308-2 0  9991","2 55089  97.4363 115.8572 0010176 208.3602 151.7089 15.36031010 62926","2023-001CJ","55089","6835.997","93.748","464.818","450.906","0"
"GENERATED VIA SPACETRACK.ORG API","18 SPCS","55089","SPACEBEE-163","PAYLOAD","U","23001CJ","2024-02-20 10:26:41","736192","15.3605988","0.0010117","97.4361","116.1865","206.9399","153.1321","0","999","6297","0.0012986","0.00045814","0","4193961","0 SPACEBEE-163","1 55089U 23001CJ  24051.43520528  .00045814  00000-0  12986-2 0  9994","2 55089  97.4361 116.1865 0010117 206.9399 153.1321 15.36059880 62970","2023-001CJ","55089","6835.911","93.746","464.692","450.860","0"
"GENERATED VIA SPACETRACK.ORG API","18 SPCS","55089","SPACEBEE-163","PAYLOAD","U","23001CJ","2024-02-20 16:41:55","271904","15.36087686","0.001012","97.4359","116.4497","206.2234","153.8498","0","999","6301","0.0014488","0.00051204","0","4194241","0 SPACEBEE-163","1 55089U 23001CJ  24051.69577861  .00051204  00000-0  14488-2 0  9993","2 55089  97.4359 116.4497 0010120 206.2234 153.8498 15.36087686 63019","2023-001CJ","55089","6835.829","93.745","464.612","450.776","0"
"GENERATED VIA SPACETRACK.ORG API","18 SPCS","55089","SPACEBEE-163","PAYLOAD","U","23001CJ","2024-02-21 03:38:32","964288","15.36134855","0.0010235","97.4357","116.9098","204.629","155.4467","0","999","6308","0.0013636","0.00048244","0","4194538","0 SPACEBEE-163","1 55089U 23001CJ  24052.15177042  .00048244  00000-0  13636-2 0  9996","2 55089  97.4357 116.9098 0010235 204.6290 155.4467 15.36134855 63082","2023-001CJ","55089","6835.689","93.742","464.550","450.557","0"
"GENERATED VIA SPACETRACK.ORG API","18 SPCS","55089","SPACEBEE-163","PAYLOAD","U","23001CJ","2024-02-21 03:38:32","964288","15.36134855","0.0010235","97.4357","116.9098","204.629","155.4467","0","999","6308","0.0013636","0.00048244","0","4194887","0 SPACEBEE-163","1 55089U 23001CJ  24052.15177042  .00048244  00000-0  13636-2 0  9996","2 55089  97.4357 116.9098 0010235 204.6290 155.4467 15.36134855 63082","2023-001CJ","55089","6835.689","93.742","464.550","450.557","0"
